[{"id": 151874662, "name": "Council Bay", "lat": 44.0592699, "lon": -91.2824325, "tags": {"ele": "221", "gnis:feature_id": "1563440", "name": "Council Bay", "natural": "bay"}}, {"id": 349362518, "name": "Pine Hill School", "lat": 44.3499594, "lon": -91.2454384, "tags": {"amenity": "school", "ele": "280", "gnis:feature_id": "1560836", "name": "Pine Hill School"}}, {"id": 349364778, "name": "Eleva-Strum High School", "lat": 44.5616305, "lon": -91.4204355, "tags": {"amenity": "school", "ele": "270", "gnis:feature_id": "1562896", "name": "Eleva-Strum High School"}}, {"id": 349383630, "name": "Naples School", "lat": 44.5549648, "lon": -91.5904359, "tags": {"amenity": "school", "ele": "268", "gnis:feature_id": "1570101", "name": "Naples School"}}, {"id": 349386545, "name": "Riverside School", "lat": 44.3388486, "lon": -91.2790491, "tags": {"amenity": "school", "ele": "257", "gnis:feature_id": "1572380", "name": "Riverside School"}}, {"id": 349420404, "name": "Saints Peter and Paul Grade School", "lat": 44.3655185, "lon": -91.4223791, "tags": {"amenity": "school", "ele": "245", "gnis:feature_id": "1851170", "name": "Saints Peter and Paul Grade School"}}, {"id": 349420420, "name": "Osseo Elementary School", "lat": 44.5821838, "lon": -91.2126571, "tags": {"amenity": "school", "ele": "305", "gnis:feature_id": "1851144", "name": "Osseo Elementary School"}}, {"id": 349420443, "name": "Osseo-Fairchild High School", "lat": 44.5813505, "lon": -91.2176573, "tags": {"amenity": "school", "ele": "298", "gnis:feature_id": "1851145", "name": "Osseo-Fairchild High School"}}, {"id": 349420462, "name": "Pigeon Falls Elementary School", "lat": 44.4263498, "lon": -91.2071029, "tags": {"amenity": "school", "ele": "268", "gnis:feature_id": "1851148", "name": "Pigeon Falls Elementary School"}}, {"id": 349420483, "name": "Independence High School", "lat": 44.3684274, "lon": -91.4220599, "tags": {"amenity": "school", "ele": "243", "gnis:feature_id": "1851116", "name": "Independence High School"}}, {"id": 349420519, "name": "Eleva Elementary School", "lat": 44.5757975, "lon": -91.4740465, "tags": {"amenity": "school", "ele": "265", "gnis:feature_id": "1851093", "name": "Eleva Elementary School"}}, {"id": 349420539, "name": "Ettrick Elementary School", "lat": 44.167737, "lon": -91.2670998, "tags": {"amenity": "school", "ele": "238", "gnis:feature_id": "1851095", "name": "Ettrick Elementary School"}}, {"id": 349420555, "name": "Arcadia Middle and Elementary School", "lat": 44.2529113, "lon": -91.4958763, "tags": {"amenity": "school", "ele": "225", "gnis:feature_id": "1851056", "name": "Arcadia Middle and Elementary School"}}, {"id": 349420918, "name": "Arcadia Catholic Grade School", "lat": 44.248784, "lon": -91.4937594, "tags": {"amenity": "school", "ele": "226", "gnis:feature_id": "1851055", "name": "Arcadia Catholic Grade School"}}, {"id": 349425441, "name": "Trempealeau Elementary", "lat": 44.0054534, "lon": -91.4351854, "tags": {"addr:city": "Trempealeau", "addr:housenumber": "24231", "addr:postcode": "54661", "addr:state": "WI", "addr:street": "5th Street", "amenity": "school", "ele": "212", "gnis:feature_id": "1851189", "name": "Trempealeau Elementary", "operator": "Gale-Ettrick-Trempealeau School District", "operator:type": "public", "website": "https://www.getschools.org"}}, {"id": 349425477, "name": "Sunset Elementary School", "lat": 44.3657944, "lon": -91.3271034, "tags": {"amenity": "school", "ele": "254", "gnis:feature_id": "1851183", "name": "Sunset Elementary School"}}, {"id": 349443736, "name": "Bald Knob", "lat": 44.0207962, "lon": -91.4584779, "tags": {"ele": "107", "ele:ft": "350", "gnis:feature_id": "1561121", "name": "Bald Knob", "natural": "peak"}}, {"id": 349443997, "name": "Brady's Bluff", "lat": 44.0203255, "lon": -91.4832826, "tags": {"ele": "158", "ele:ft": "520", "gnis:feature_id": "1562134", "name": "Brady's Bluff", "natural": "peak"}}, {"id": 349444191, "name": "Bunnels Bluff", "lat": 44.0144074, "lon": -91.4662554, "tags": {"ele": "143", "ele:ft": "470", "gnis:feature_id": "1562411", "name": "Bunnels Bluff", "natural": "peak"}}, {"id": 349444463, "name": "Chicken Breast Bluff", "lat": 44.0166296, "lon": -91.4504222, "tags": {"ele": "145", "ele:ft": "477", "gnis:feature_id": "1563010", "name": "Chicken Breast Bluff", "natural": "peak"}}, {"id": 349444590, "name": "Chimney Rock", "lat": 44.506632, "lon": -91.4465459, "tags": {"ele": "373", "gnis:feature_id": "1563028", "name": "Chimney Rock", "natural": "peak"}}, {"id": 349444723, "name": "Cox Hill", "lat": 44.0660725, "lon": -91.1823678, "tags": {"ele": "283", "gnis:feature_id": "1563466", "name": "Cox Hill", "natural": "peak"}}, {"id": 349444817, "name": "Decorah Peak", "lat": 44.0760724, "lon": -91.3162598, "tags": {"ele": "354", "gnis:feature_id": "1563802", "name": "Decorah Peak", "natural": "peak"}}, {"id": 349444833, "name": "Decorah Mound", "lat": 44.0794056, "lon": -91.3107046, "tags": {"ele": "359", "gnis:feature_id": "1563801", "name": "Decorah Mound", "natural": "peak"}}, {"id": 349445243, "name": "Gransberg Hill", "lat": 44.305792, "lon": -91.2282154, "tags": {"ele": "329", "gnis:feature_id": "1565735", "name": "Gransberg Hill", "natural": "peak"}}, {"id": 349446306, "name": "Johnson Peak", "lat": 44.1274605, "lon": -91.3095964, "tags": {"ele": "377", "gnis:feature_id": "1567244", "name": "Johnson Peak", "natural": "peak"}}, {"id": 349447566, "name": "Peacock Hill", "lat": 44.1080165, "lon": -91.1640362, "tags": {"ele": "401", "gnis:feature_id": "1571118", "name": "Peacock Hill", "natural": "peak"}}, {"id": 349447878, "name": "Reed's Peak", "lat": 44.0213519, "lon": -91.467089, "tags": {"ele": "137", "ele:ft": "450", "gnis:feature_id": "1572171", "name": "Reed's Peak", "natural": "peak"}}, {"id": 349447983, "name": "Pine Knob", "lat": 44.0605173, "lon": -91.1590332, "tags": {"ele": "287", "gnis:feature_id": "1571482", "name": "Pine Knob", "natural": "peak"}}, {"id": 349450148, "name": "Square Bluff", "lat": 44.3119049, "lon": -91.3440476, "tags": {"ele": "407", "gnis:feature_id": "1574748", "name": "Square Bluff", "natural": "peak"}}, {"id": 349450509, "name": "Thimble Peak", "lat": 44.1671815, "lon": -91.2190428, "tags": {"ele": "363", "gnis:feature_id": "1575352", "name": "Thimble Peak", "natural": "peak"}}, {"id": 349450778, "name": "Walek Knob", "lat": 44.3969089, "lon": -91.479878, "tags": {"ele": "334", "gnis:feature_id": "1576155", "name": "Walek Knob", "natural": "peak"}}, {"id": 349450982, "name": "Trempealeau Mountain", "lat": 44.0213521, "lon": -91.4965333, "tags": {"ele": "118", "gnis:feature_id": "1575593", "name": "Trempealeau Mountain", "natural": "peak"}}, {"id": 349451360, "name": "Weaver Hill", "lat": 44.2716274, "lon": -91.3873797, "tags": {"ele": "372", "gnis:feature_id": "1576364", "name": "Weaver Hill", "natural": "peak"}}, {"id": 349471639, "name": "Julson Cemetery", "lat": 44.4738547, "lon": -91.5651562, "tags": {"amenity": "grave_yard", "ele": "315", "gnis:feature_id": "1567314", "name": "Julson Cemetery"}}, {"id": 349482236, "name": "Prairie View Cemetery", "lat": 44.5385744, "lon": -91.3476583, "tags": {"amenity": "grave_yard", "ele": "306", "gnis:feature_id": "1571894", "name": "Prairie View Cemetery"}}, {"id": 349490469, "name": "Tinnes Cemetery", "lat": 44.2935713, "lon": -91.347103, "tags": {"amenity": "grave_yard", "ele": "334", "gnis:feature_id": "1575468", "name": "Tinnes Cemetery"}}, {"id": 353869761, "name": "Borst Valley State Public Hunting Area", "lat": 44.4619102, "lon": -91.5101559, "tags": {"ele": "291", "gnis:feature_id": "1560652", "leisure": "park", "name": "Borst Valley State Public Hunting Area"}}, {"id": 353871606, "name": "Crystal Lake Park", "lat": 44.5571857, "lon": -91.3829357, "tags": {"ele": "271", "gnis:feature_id": "1563599", "leisure": "park", "name": "Crystal Lake Park"}}, {"id": 353872229, "name": "Eagle Bluff", "lat": 44.0096852, "lon": -91.4534774, "tags": {"ele": "338", "gnis:feature_id": "1564233", "name": "Eagle Bluff", "natural": "cliff"}}, {"id": 353873121, "name": "Hardies Creek State Forest", "lat": 44.1074602, "lon": -91.2343175, "tags": {"ele": "292", "gnis:feature_id": "1566066", "leisure": "park", "name": "Hardies Creek State Forest"}}, {"id": 353881910, "name": "Lakes Coulee State Public Hunting Grounds", "lat": 44.2755142, "lon": -91.2790494, "tags": {"ele": "270", "gnis:feature_id": "1567773", "leisure": "park", "name": "Lakes Coulee State Public Hunting Grounds"}}, {"id": 353882160, "name": "King Bluff", "lat": 44.016073, "lon": -91.2776452, "tags": {"ele": "336", "gnis:feature_id": "1567493", "name": "King Bluff", "natural": "cliff"}}, {"id": 353882363, "name": "Joe Pietrek Junior County Park", "lat": 44.2985736, "lon": -91.4565447, "tags": {"ele": "228", "gnis:feature_id": "1567193", "leisure": "park", "name": "Joe Pietrek Junior County Park"}}, {"id": 353882457, "name": "Long Coulee Park", "lat": 43.9955177, "lon": -91.2559773, "tags": {"ele": "233", "gnis:feature_id": "1568523", "leisure": "park", "name": "Long Coulee Park"}}, {"id": 353884557, "name": "Martha Lake", "lat": 44.5763505, "lon": -91.2240465, "tags": {"ele": "290", "gnis:feature_id": "1569091", "name": "Martha Lake", "natural": "water", "water": "reservoir"}}, {"id": 353889195, "name": "Queen Bluff", "lat": 44.0674615, "lon": -91.3323702, "tags": {"ele": "374", "gnis:feature_id": "1572000", "name": "Queen Bluff", "natural": "cliff"}}, {"id": 353890346, "name": "Trempealeau Lakes State Public Hunting Grounds", "lat": 43.9927407, "lon": -91.4148658, "tags": {"ele": "197", "gnis:feature_id": "1575592", "leisure": "park", "name": "Trempealeau Lakes State Public Hunting Grounds"}}, {"id": 353890901, "name": "Van Loon State Public Hunting Grounds", "lat": 44.0235731, "lon": -91.3234787, "tags": {"ele": "197", "gnis:feature_id": "1576037", "leisure": "park", "name": "Van Loon State Public Hunting Grounds"}}, {"id": 353891775, "name": "Trempealeau National Wildlife Refuge", "lat": 44.0499631, "lon": -91.5334797, "tags": {"ele": "204", "gnis:feature_id": "1577202", "leisure": "park", "name": "Trempealeau National Wildlife Refuge"}}, {"id": 354528635, "name": "Pool Six 60000", "lat": 43.9999629, "lon": -91.438477, "tags": {"ele": "197", "gnis:feature_id": "1793079", "name": "Pool Six 60000", "natural": "water", "water": "reservoir"}}, {"id": 354531291, "name": "Great River Trail Prairies State Natural Area", "lat": 44.0252407, "lon": -91.4565337, "tags": {"ele": "220", "gnis:feature_id": "2059243", "leisure": "park", "name": "Great River Trail Prairies State Natural Area"}}, {"id": 354532004, "name": "Brady's Bluff Prairie State Natural Area", "lat": 44.0199631, "lon": -91.4851444, "tags": {"ele": "259", "gnis:feature_id": "2061780", "leisure": "park", "name": "Brady's Bluff Prairie State Natural Area"}}, {"id": 354532013, "name": "Perrot Ridge", "lat": 44.0205405, "lon": -91.4720203, "tags": {"ele": "155", "ele:ft": "507", "gnis:feature_id": "2061784", "name": "Perrot Ridge", "natural": "peak"}}, {"id": 354532055, "name": "Trempealeau River Meadow State Natural Area", "lat": 44.1844076, "lon": -91.6070965, "tags": {"ele": "210", "gnis:feature_id": "2061657", "leisure": "park", "name": "Trempealeau River Meadow State Natural Area"}}, {"id": 354532362, "name": "Memorial Park", "lat": 44.2984423, "lon": -91.2269494, "tags": {"ele": "259", "gnis:feature_id": "1851133", "leisure": "park", "name": "Memorial Park"}}, {"id": 354532367, "name": "Vosse Coulee State Wildlife Area", "lat": 44.3419042, "lon": -91.1690453, "tags": {"ele": "284", "gnis:feature_id": "1851195", "leisure": "park", "name": "Vosse Coulee State Wildlife Area"}}, {"id": 354532372, "name": "Tollefson Marsh State Wildlife Area", "lat": 44.4996843, "lon": -91.2034917, "tags": {"ele": "321", "gnis:feature_id": "1851186", "leisure": "park", "name": "Tollefson Marsh State Wildlife Area"}}, {"id": 566340531, "name": "Drugan's Supper Club", "lat": 44.034294, "lon": -91.2886833, "tags": {"amenity": "restaurant", "name": "Drugan's Supper Club"}}, {"id": 566347133, "name": "Trempealeau Hotel", "lat": 44.0046194, "lon": -91.442435, "tags": {"amenity": "restaurant", "name": "Trempealeau Hotel"}}, {"id": 597550100, "name": "BP", "lat": 44.5785882, "lon": -91.2016604, "tags": {"amenity": "fuel", "brand": "BP", "brand:wikidata": "Q152057", "name": "BP", "shop": "convenience"}}, {"id": 597550141, "name": "Mobil", "lat": 44.5787696, "lon": -91.2007046, "tags": {"amenity": "fuel", "brand": "Mobil", "brand:wikidata": "Q3088656", "name": "Mobil", "shop": "convenience"}}, {"id": 597550331, "name": "Shell", "lat": 44.5779366, "lon": -91.199975, "tags": {"amenity": "fuel", "brand": "Shell", "brand:wikidata": "Q154950", "name": "Shell", "shop": "convenience"}}, {"id": 1373357610, "name": "Delta Point", "lat": 44.0541916, "lon": -91.5591118, "tags": {"name": "Delta Point", "tourism": "viewpoint"}}, {"id": 1757627745, "name": "Arcadia Area Historical Society", "lat": 44.2493031, "lon": -91.5004974, "tags": {"name": "Arcadia Area Historical Society", "tourism": "museum"}}, {"id": 1757627746, "name": "Arcadia High School", "lat": 44.2414964, "lon": -91.4871504, "tags": {"amenity": "school", "mascot": "Raiders", "name": "Arcadia High School", "wikidata": "Q4785145", "wikipedia": "en:Arcadia High School (Wisconsin)"}}, {"id": 1757627747, "name": "Arcadia Glencoe Volunteer Fire Department", "lat": 44.2528228, "lon": -91.5049659, "tags": {"amenity": "fire_station", "name": "Arcadia Glencoe Volunteer Fire Department"}}, {"id": 1757627748, "name": "Arcadia Police Department", "lat": 44.2524866, "lon": -91.5010807, "tags": {"amenity": "police", "name": "Arcadia Police Department"}}, {"id": 1904231337, "name": "Dodge Fire Department", "lat": 44.1322864, "lon": -91.5500852, "tags": {"amenity": "fire_station", "name": "Dodge Fire Department"}}, {"id": 1904231341, "name": "Dodge Town Hall", "lat": 44.1321788, "lon": -91.5500858, "tags": {"amenity": "townhall", "name": "Dodge Town Hall"}}, {"id": 1904231342, "name": "Dodge Post Office", "lat": 44.1310237, "lon": -91.5516948, "tags": {"amenity": "post_office", "name": "Dodge Post Office"}}, {"id": 2085363687, "name": "Town of Arcadia", "lat": 44.2506324, "lon": -91.4697457, "tags": {"amenity": "townhall", "name": "Town of Arcadia"}}, {"id": 2085363691, "name": "Lions Pavilion", "lat": 44.2419554, "lon": -91.4957846, "tags": {"amenity": "shelter", "name": "Lions Pavilion", "shelter_type": "picnic_shelter"}}, {"id": 2085363698, "name": "Holy Family Catholic Church", "lat": 44.2492337, "lon": -91.4934028, "tags": {"amenity": "place_of_worship", "denomination": "catholic", "name": "Holy Family Catholic Church", "religion": "christian"}}, {"id": 2156650036, "name": "Coulee Region High School", "lat": 44.0786901, "lon": -91.3679015, "tags": {"addr:housename": "Coulee Region High School", "addr:housenumber": "20873", "addr:postcode": "54630", "addr:street": "College Ave", "alt_name": "Kindernook", "amenity": "school", "name": "Coulee Region High School", "old_name": "Marynook"}}, {"id": 2443574370, "name": "Stoney Creek RV Resort and Campground", "lat": 44.5744924, "lon": -91.195043, "tags": {"name": "Stoney Creek RV Resort and Campground", "source": "Bing, http://www.stoneycreekrvresort.com", "tourism": "caravan_site"}}, {"id": 2498983997, "name": "St. Bridget Catholic Church", "lat": 44.1666928, "lon": -91.2668285, "tags": {"amenity": "place_of_worship", "name": "St. Bridget Catholic Church", "religion": "christian"}}, {"id": 2500235581, "name": "St. Mary Catholic Church", "lat": 44.0840227, "lon": -91.3584333, "tags": {"amenity": "place_of_worship", "name": "St. Mary Catholic Church", "religion": "christian"}}, {"id": 2501233472, "name": "SS Peter and Paul Catholic Church", "lat": 44.3642464, "lon": -91.4222203, "tags": {"amenity": "place_of_worship", "name": "SS Peter and Paul Catholic Church", "religion": "christian"}}, {"id": 2502351079, "name": "Most Sacred Heart Catholic Church", "lat": 44.1349231, "lon": -91.5206958, "tags": {"amenity": "place_of_worship", "name": "Most Sacred Heart Catholic Church", "religion": "christian"}}, {"id": 2503312432, "name": "St. Bartholomew Catholic Church", "lat": 44.0078815, "lon": -91.4390206, "tags": {"amenity": "place_of_worship", "name": "St. Bartholomew Catholic Church", "religion": "christian"}}, {"id": 2503366680, "name": "St. John the Apostle Catholic Church", "lat": 44.3625552, "lon": -91.3081119, "tags": {"amenity": "place_of_worship", "name": "St. John the Apostle Catholic Church", "religion": "christian"}}, {"id": 2886434060, "name": "Lower Apache", "lat": 44.0522567, "lon": -91.2855425, "tags": {"name": "Lower Apache", "tourism": "camp_site"}}, {"id": 2886434062, "name": "Upper Comanche", "lat": 44.0533323, "lon": -91.2860306, "tags": {"name": "Upper Comanche", "tourism": "camp_site"}}, {"id": 2886434087, "name": "Lower Comanche", "lat": 44.053209, "lon": -91.2855586, "tags": {"name": "Lower Comanche", "tourism": "camp_site"}}, {"id": 2886434100, "name": "Upper Apache", "lat": 44.0523241, "lon": -91.2860092, "tags": {"name": "Upper Apache", "tourism": "camp_site"}}, {"id": 2886441179, "name": "Iroquois", "lat": 44.0520178, "lon": -91.2845852, "tags": {"name": "Iroquois", "tourism": "camp_site"}}, {"id": 2886447269, "name": "Winnebago", "lat": 44.0541498, "lon": -91.2854756, "tags": {"name": "Winnebago", "tourism": "camp_site"}}, {"id": 2886447288, "name": "Mohawk", "lat": 44.05201, "lon": -91.2830886, "tags": {"name": "Mohawk", "tourism": "camp_site"}}, {"id": 2886462028, "name": "Lenape", "lat": 44.0534249, "lon": -91.2819189, "tags": {"name": "Lenape", "tourism": "camp_site"}}, {"id": 2886462058, "name": "Chippewa", "lat": 44.0538762, "lon": -91.2844889, "tags": {"name": "Chippewa", "tourism": "camp_site"}}, {"id": 2886462062, "name": "Sioux", "lat": 44.0533131, "lon": -91.2825119, "tags": {"name": "Sioux", "tourism": "camp_site"}}, {"id": 2886462064, "name": "Blackfoot", "lat": 44.0545331, "lon": -91.2829623, "tags": {"name": "Blackfoot", "tourism": "camp_site"}}, {"id": 2886463412, "name": "Cherokee", "lat": 44.0533132, "lon": -91.284483, "tags": {"name": "Cherokee", "tourism": "camp_site"}}, {"id": 2888371154, "name": "Scoutcraft", "lat": 44.0534851, "lon": -91.2838497, "tags": {"amenity": "shelter", "name": "Scoutcraft"}}, {"id": 2902093623, "name": "Chapel", "lat": 44.0584151, "lon": -91.2807248, "tags": {"amenity": "place_of_worship", "name": "Chapel"}}, {"id": 2902093625, "name": "Firebowl", "lat": 44.0596445, "lon": -91.2842067, "tags": {"amenity": "theatre", "name": "Firebowl", "theatre:type": "amphi"}}, {"id": 3219553813, "name": "Site C", "lat": 44.0301113, "lon": -91.4892815, "tags": {"group_only": "yes", "name": "Site C", "tourism": "camp_site"}}, {"id": 3235201384, "name": "Mount Calvary Lutheran Church", "lat": 44.0086988, "lon": -91.4416763, "tags": {"addr:city": "Trempealeau", "addr:housenumber": "24531 Sixth", "addr:postcode": "54661", "addr:state": "WI", "addr:street": "6th Street", "amenity": "place_of_worship", "denomination": "lutheran(ELCA)", "name": "Mount Calvary Lutheran Church", "phone": "+1-608-534-6672", "religion": "christian"}}, {"id": 3235239544, "name": "Trempealeau Community Heritage Museum", "lat": 44.0054878, "lon": -91.4415538, "tags": {"addr:city": "Trempealeau", "addr:housenumber": "24455", "addr:postcode": "54661", "addr:state": "WI", "addr:street": "3rd Street", "name": "Trempealeau Community Heritage Museum", "note": "Hours are 1:00 PM to 3:00 PM Saturday and Sunday during the summer, needs translation to a proper opening_hours tag", "operator": "Trempealeau Comminiry Heritage Society;Village of Trempealeau", "tourism": "museum", "website": "https://www.facebook.com/Trempealeau.Heritage/"}}, {"id": 3235245984, "name": "Trempealeau Community Center", "lat": 44.0053414, "lon": -91.4413864, "tags": {"addr:city": "Trempealeau", "addr:housenumber": "24455", "addr:postcode": "54661", "addr:state": "WI", "addr:street": "3rd Street", "amenity": "townhall", "name": "Trempealeau Community Center", "operator": "Village of Trempealeau", "phone": "+1 608 534 6434"}}, {"id": 3235259870, "name": "Trempealeau Caladona Fire Deparment", "lat": 44.0075561, "lon": -91.4305354, "tags": {"amenity": "fire_station", "name": "Trempealeau Caladona Fire Deparment", "operator": "Trempealeau Caladona Fire Deparment"}}, {"id": 3843466842, "name": "Kwik Trip", "lat": 44.2904854, "lon": -91.2412753, "tags": {"amenity": "fuel", "brand": "Kwik Trip", "brand:wikidata": "Q6450420", "name": "Kwik Trip", "website": "https://www.kwiktrip.com/locator/store?id=328"}}, {"id": 3843483288, "name": "Blair Haus", "lat": 44.2944834, "lon": -91.2322183, "tags": {"amenity": "bar", "name": "Blair Haus"}}, {"id": 3843483489, "name": "Grand View Care Center", "lat": 44.2915182, "lon": -91.23861, "tags": {"addr:city": "Blair", "addr:housenumber": "620", "addr:postcode": "54616", "addr:street": "Grand View Avenue", "amenity": "nursing_home", "name": "Grand View Care Center", "phone": "+1 608 989 2511", "website": "https://www.grandviewhome.org/"}}, {"id": 3843483490, "name": "Gundersen Clinic", "lat": 44.2912686, "lon": -91.2372421, "tags": {"amenity": "clinic", "healthcare": "clinic", "name": "Gundersen Clinic"}}, {"id": 3843484347, "name": "Auto Parts", "lat": 44.2956881, "lon": -91.2359815, "tags": {"name": "Auto Parts", "shop": "car_parts"}}, {"id": 3843485039, "name": "Dollar General", "lat": 44.2948837, "lon": -91.2351688, "tags": {"brand": "Dollar General", "brand:wikidata": "Q145168", "name": "Dollar General", "shop": "variety_store", "website": "https://www.dollargeneral.com/store-directory/wi/blair/11052"}}, {"id": 3843498514, "name": "Deer Park", "lat": 44.2973207, "lon": -91.226223, "tags": {"leisure": "park", "name": "Deer Park"}}, {"id": 3843498520, "name": "BP", "lat": 44.2953011, "lon": -91.235895, "tags": {"amenity": "fuel", "name": "BP"}}, {"id": 3843498521, "name": "Zion", "lat": 44.2937614, "lon": -91.2372897, "tags": {"amenity": "place_of_worship", "name": "Zion", "religion": "christian"}}, {"id": 3843502641, "name": "Rainbow", "lat": 44.2877866, "lon": -91.2410985, "tags": {"amenity": "restaurant", "cuisine": "home_style", "name": "Rainbow"}}, {"id": 3993066897, "name": "Waterfront Pavilion", "lat": 44.0588072, "lon": -91.2839363, "tags": {"amenity": "shelter", "name": "Waterfront Pavilion"}}, {"id": 3993068086, "name": "Staff Row", "lat": 44.057368, "lon": -91.2815206, "tags": {"name": "Staff Row", "tourism": "camp_site"}}, {"id": 3993068087, "name": "Max Winter Outpost", "lat": 44.0515247, "lon": -91.287391, "tags": {"amenity": "shelter", "name": "Max Winter Outpost"}}, {"id": 3993075850, "name": "Commissioner's", "lat": 44.0541351, "lon": -91.283993, "tags": {"amenity": "shelter", "name": "Commissioner's"}}, {"id": 4245433331, "name": "King's Bluff", "lat": 44.0158276, "lon": -91.2776764, "tags": {"name": "King's Bluff", "natural": "peak"}}, {"id": 4251186809, "name": "Brownsea", "lat": 44.0567078, "lon": -91.2851219, "tags": {"amenity": "shelter", "name": "Brownsea"}}, {"id": 4251186824, "name": "Low COPE", "lat": 44.0574513, "lon": -91.2866688, "tags": {"leisure": "sports_centre", "name": "Low COPE", "sport": "climbing"}}, {"id": 4341390711, "name": "Arapahoe", "lat": 44.0553164, "lon": -91.2820562, "tags": {"name": "Arapahoe", "tourism": "camp_site"}}, {"id": 4341748765, "name": "Champions Riverside Resort", "lat": 44.0634014, "lon": -91.283668, "tags": {"name": "Champions Riverside Resort", "tourism": "camp_site"}}, {"id": 4341748766, "name": "Champions Bar & Grill", "lat": 44.0639062, "lon": -91.2851172, "tags": {"amenity": "restaurant", "name": "Champions Bar & Grill"}}, {"id": 4399040745, "name": "Kwik Trip", "lat": 44.3675869, "lon": -91.3170615, "tags": {"amenity": "fuel", "brand": "Kwik Trip", "brand:wikidata": "Q6450420", "name": "Kwik Trip", "website": "https://www.kwiktrip.com/locator/store?id=729"}}, {"id": 4541794351, "name": "BP Gas Station", "lat": 44.0832978, "lon": -91.3488131, "tags": {"amenity": "fuel", "brand": "BP", "name": "BP Gas Station"}}, {"id": 4541816017, "name": "Subway", "lat": 44.0913239, "lon": -91.3421843, "tags": {"addr:city": "Galesville", "addr:housenumber": "17462", "addr:postcode": "54630", "addr:state": "WI", "addr:street": "North Main Street", "amenity": "fast_food", "brand": "Subway", "brand:wikidata": "Q244457", "cuisine": "sandwich", "name": "Subway", "opening_hours": "08:00-21:00", "phone": "+1 608-582-2276", "takeaway": "yes", "website": "https://restaurants.subway.com/united-states/wi/galesville/17462-n-main-st"}}, {"id": 4541826790, "name": "Post Office in Galesville, WI", "lat": 44.0815965, "lon": -91.3491983, "tags": {"amenity": "post_office", "designation": "US Post Office", "name": "Post Office in Galesville, WI"}}, {"id": 4541836889, "name": "Police Department", "lat": 44.0816146, "lon": -91.3494245, "tags": {"amenity": "police", "name": "Police Department"}}, {"id": 4541839889, "name": "Express Mart", "lat": 44.0834315, "lon": -91.3485527, "tags": {"amenity": "car_wash", "name": "Express Mart"}}, {"id": 4541849591, "name": "Peanuts Toy Barn", "lat": 44.0826628, "lon": -91.3492126, "tags": {"addr:city": "Gelesville", "addr:housenumber": "16853", "addr:postcode": "54630", "addr:street": "South Main Street", "name": "Peanuts Toy Barn", "shop": "toys"}}, {"id": 4541859272, "name": "Galesville Fire Department", "lat": 44.0791117, "lon": -91.3577474, "tags": {"amenity": "fire_station", "name": "Galesville Fire Department"}}, {"id": 4541864818, "name": "Randy's Neighborhood Market - Galesville", "lat": 44.0927753, "lon": -91.3408548, "tags": {"addr:city": "Galesville", "addr:housenumber": "17512", "addr:postcode": "54630", "addr:street": "North Main Street", "name": "Randy's Neighborhood Market - Galesville", "operator": "Randy's Neighborhood Market", "shop": "supermarket"}}, {"id": 4541874880, "name": "Galesville Public Library", "lat": 44.0818978, "lon": -91.3492072, "tags": {"amenity": "library", "name": "Galesville Public Library"}}, {"id": 4541880926, "name": "Best Friends Pet Clinic LLC", "lat": 44.0828285, "lon": -91.3491992, "tags": {"addr:city": "Galesville", "addr:housenumber": "16875", "addr:postcode": "54630", "addr:street": "South Main Street", "amenity": "veterinary", "name": "Best Friends Pet Clinic LLC"}}, {"id": 4804873321, "name": "Gordy's Market", "lat": 44.5790785, "lon": -91.2185249, "tags": {"name": "Gordy's Market", "name:en": "Gordy's Market", "shop": "supermarket"}}, {"id": 4821421148, "name": "Dollar General", "lat": 44.076269, "lon": -91.349951, "tags": {"addr:city": "Galesville", "addr:country": "US", "addr:postcode": "54630", "addr:state": "WI", "addr:street": "Winnebago Road", "brand": "Dollar General", "brand:wikidata": "Q145168", "name": "Dollar General", "post_office": "post_partner", "post_office:brand": "FedEx OnSite", "post_office:service_provider": "FedEx", "post_office:website": "https://local.fedex.com/en-us/wi/galesville/lsecb", "shop": "variety_store", "start_date": "2015", "website": "https://www.dollargeneral.com/store-directory/wi/galesville/14069"}}, {"id": 4895482270, "name": "Hwy 35/54 Boat Launch", "lat": 44.0702208, "lon": -91.5425056, "tags": {"leisure": "slipway", "name": "Hwy 35/54 Boat Launch"}}, {"id": 4938861045, "name": "Village of Trempealeau Village Hall", "lat": 44.0053879, "lon": -91.4415427, "tags": {"addr:city": "Trempealeau", "addr:housenumber": "24455", "addr:postcode": "54661", "addr:state": "WI", "addr:street": "3rd Street", "amenity": "townhall", "name": "Village of Trempealeau Village Hall", "operator": "Village of Trempealeau"}}, {"id": 4938861046, "name": "Bank of Trempealeau", "lat": 44.0059204, "lon": -91.4417304, "tags": {"amenity": "bank", "name": "Bank of Trempealeau"}}, {"id": 5224908254, "name": "Beedles", "lat": 44.0704506, "lon": -91.4505061, "tags": {"amenity": "restaurant", "name": "Beedles"}}, {"id": 7100368267, "name": "4th class climb", "lat": 44.004773, "lon": -91.4832633, "tags": {"height": "60", "name": "4th class climb", "natural": "cliff"}}, {"id": 7100379846, "name": "High rock", "lat": 44.0052612, "lon": -91.4833223, "tags": {"direction": "300", "ele": "1126", "name": "High rock", "tourism": "viewpoint"}}, {"id": 7100379847, "name": "North View", "lat": 44.0049829, "lon": -91.4860044, "tags": {"direction": "180", "name": "North View", "tourism": "viewpoint"}}, {"id": 7157761509, "name": "Perrot State Park Campground", "lat": 44.0296288, "lon": -91.4839414, "tags": {"addr:city": "Trempealeau", "addr:housenumber": "W26247", "addr:state": "WI", "addr:street": "Sullivan Road", "capacity": "98", "name": "Perrot State Park Campground", "operator": "Perrot State Park", "power_supply": "yes", "sanitary_dump_station": "yes", "shower": "yes", "tourism": "camp_site"}}, {"id": 7157763973, "name": "Pla-Mor Campground", "lat": 44.0102842, "lon": -91.5081566, "tags": {"addr:city": "Winona", "addr:housenumber": "22718", "addr:postcode": "55987", "addr:state": "MN", "addr:street": "Little Smokies Ln", "cabins": "yes", "charge": "$25-$41", "drinking_water": "yes", "fee": "yes", "name": "Pla-Mor Campground", "power_supply": "yes", "reservation": "yes", "shower": "yes", "tents": "yes", "tourism": "camp_site"}}, {"id": 7386380060, "name": "Pietrek Park Campgrounds", "lat": 44.2989282, "lon": -91.4583717, "tags": {"addr:city": "Arcadia", "addr:housenumber": "N31500", "addr:postcode": "54612", "addr:state": "WI", "addr:street": "State Road 93", "capacity": "37", "charge": "25 USD", "fee": "yes", "name": "Pietrek Park Campgrounds", "phone": "+1-715-538-2311 ext. 205", "reservation": "yes", "shower": "yes", "toilets": "yes", "tourism": "camp_site"}}, {"id": 7596134357, "name": "Steven's Garage & Transmission", "lat": 44.0710226, "lon": -91.6061848, "tags": {"name": "Steven's Garage & Transmission", "shop": "car_repair"}}, {"id": 7596134362, "name": "Mary Moe's Bar & Grill", "lat": 44.0706911, "lon": -91.6025906, "tags": {"amenity": "restaurant", "name": "Mary Moe's Bar & Grill"}}, {"id": 9135742104, "name": "Fred\u2019s Body Shop", "lat": 44.0252316, "lon": -91.6072529, "tags": {"addr:city": "Winona", "addr:housenumber": "1238", "addr:postcode": "55987", "addr:state": "MN", "addr:street": "Breezy Lane", "building": "yes", "building:levels": "1", "email": "freds@hbci.com", "fax": "+1-507-454-5457", "level": "1", "name": "Fred\u2019s Body Shop", "phone": "+1-507-454-5454", "service": "body", "shop": "car_repair", "stroller": "yes", "wheelchair": "limited"}}, {"id": 9194758231, "name": "The Vets Bar", "lat": 44.005363, "lon": -91.4410135, "tags": {"addr:housenumber": "24425", "addr:street": "3rd Street", "amenity": "bar", "name": "The Vets Bar"}}, {"id": 9701989625, "name": "Create Happy", "lat": 44.0824281, "lon": -91.3498362, "tags": {"addr:city": "Galesville", "addr:housenumber": "19921", "addr:state": "WI", "addr:street": "West Gale Avenue", "name": "Create Happy", "payment:cash": "yes", "payment:credit_cards": "yes", "shop": "gift", "website": "https://www.createhappywi.com/"}}, {"id": 9768640260, "name": "Little Bluff Inn", "lat": 44.0067413, "lon": -91.4426251, "tags": {"addr:city": "Trempealeau", "addr:country": "US", "addr:housenumber": "11451", "addr:postcode": "54661", "addr:state": "WI", "addr:street": "Main Street", "name": "Little Bluff Inn", "opening_hours": "24/7", "phone": "608-534-6615", "tourism": "hotel", "website": "https://littlebluffinn.com"}}, {"id": 9770819045, "name": "Site B", "lat": 44.0305174, "lon": -91.4892594, "tags": {"group_only": "yes", "name": "Site B", "tourism": "camp_site"}}, {"id": 9770819046, "name": "Site A", "lat": 44.0310991, "lon": -91.4889843, "tags": {"group_only": "yes", "name": "Site A", "tourism": "camp_site"}}, {"id": 9770819071, "name": "Site D", "lat": 44.0300794, "lon": -91.4901886, "tags": {"group_only": "yes", "name": "Site D", "tourism": "camp_site"}}, {"id": 10019860041, "name": "Prairie View Information", "lat": 44.0560456, "lon": -91.5379108, "tags": {"information": "board", "name": "Prairie View Information", "tourism": "information"}}, {"id": 10019860042, "name": "Wildlife Drive Information", "lat": 44.0504808, "lon": -91.5215214, "tags": {"information": "board", "name": "Wildlife Drive Information", "tourism": "information"}}, {"id": 10019860043, "name": "Marshland Access Information", "lat": 44.0707648, "lon": -91.5542848, "tags": {"information": "board", "name": "Marshland Access Information", "tourism": "information"}}, {"id": 10019860044, "name": "River Bottoms Information", "lat": 44.068313, "lon": -91.5972826, "tags": {"information": "board", "name": "River Bottoms Information", "tourism": "information"}}, {"id": 10022855010, "name": "Kieps Island Boat Ramp", "lat": 44.0421308, "lon": -91.5265498, "tags": {"leisure": "slipway", "name": "Kieps Island Boat Ramp"}}, {"id": 10022958200, "name": "Pine Creek Dike Trail Viewpoint", "lat": 44.0469668, "lon": -91.5442167, "tags": {"name": "Pine Creek Dike Trail Viewpoint", "tourism": "viewpoint"}}, {"id": 11752848082, "name": "Highest point in Buffalo County", "lat": 44.4136912, "lon": -91.553066, "tags": {"ele": "417", "ele:ft": "1367", "name": "Highest point in Buffalo County", "natural": "peak"}}, {"id": 11903204191, "name": "River Cafe", "lat": 44.0036434, "lon": -91.4309863, "tags": {"addr:city": "Trempealeau", "addr:postcode": "54661", "addr:state": "WI", "addr:street": "3rd Street", "amenity": "restaurant", "name": "River Cafe", "phone": "608-534-5055", "website": "https://www.rivercafetrempealeau.com/"}}, {"id": 11958458304, "name": "Creekside Fence", "lat": 44.0162273, "lon": -91.2974011, "tags": {"addr:city": "Holmen", "addr:housenumber": "3211", "addr:postcode": "54636", "addr:state": "WI", "addr:street": "McGilvray Way", "description": "Residential fence contractors specializing in vinyl, chain link, and aluminum fences. Serving the Coulee Region since 1996. We have a solution for all your fencing needs!", "email": "creeksidefence@gmail.com", "facebook": "https://www.facebook.com/creeksidefencellc/", "name": "Creekside Fence", "opening_hours": "Mon-Thu: 8am-5pm | Fri: 8am-4pm | Sat-Sun: Closed", "phone": "608-780-5738", "shop": "repair", "website": "https://creeksidefencing.com/"}}, {"id": 12151480532, "name": "CCF Bank", "lat": 44.5764577, "lon": -91.222672, "tags": {"addr:city": "Osseo", "addr:country": "US", "addr:housenumber": "50518", "addr:postcode": "54758", "addr:state": "WI", "addr:street": "Charles Street", "amenity": "bank", "atm": "yes", "drive_through": "yes", "name": "CCF Bank", "opening_hours": "Mo-Fr 09:00-17:00", "opening_hours:drive_through": "Mo-Fr 09:00-Fr 17:00 and Sat 09:00-12:00", "source": "local knowledge"}}, {"id": 12288729271, "name": "McDonald's", "lat": 44.2495365, "lon": -91.4725675, "tags": {"addr:country": "US", "addr:housenumber": "310", "addr:postcode": "54612", "addr:state": "WI", "amenity": "fast_food", "brand": "McDonald's", "brand:wikidata": "Q38076", "check_date": "2024-02-01", "check_date:opening_hours": "2024-02-01", "check_date:opening_hours:drive_through": "2024-02-01", "cuisine": "burger", "drive_through": "yes", "indoor_seating": "yes", "internet_access": "wlan", "name": "McDonald's", "opening_hours": "Mo-Su 06:00-22:00", "opening_hours:drive_through": "Mo-Th 06:00-22:00; Fr-Sa 06:00-23:00; Su 06:00-22:00", "phone": "+1 608-323-3153", "takeaway": "yes", "website": "https://www.mcdonalds.com/us/en-us/location/wi/arcadia/310-nelson-dr/33575.html"}}, {"id": 12635949797, "name": "CAT Scale", "lat": 44.577152, "lon": -91.2004007, "tags": {"amenity": "weighbridge", "brand": "CAT Scale", "brand:wikidata": "Q111631907", "check_date": "2024-02-10", "name": "CAT Scale", "operator": "TA Express", "operator:phone": "+1 715-597-2353", "ref": "3314", "website": "https://catscale.com/cat-scale-locator/?single=3314"}}, {"id": 12917457990, "name": "Cat Daddy's", "lat": 43.9961842, "lon": -91.4283539, "tags": {"amenity": "restaurant", "check_date": "2025-06-08", "cuisine": "american;grill", "name": "Cat Daddy's"}}, {"id": 13032345651, "name": "Blair Aquatic Center", "lat": 44.297288, "lon": -91.2307061, "tags": {"leisure": "sports_centre", "name": "Blair Aquatic Center", "sport": "swimming"}}, {"id": 13191372672, "name": "Farm to Fork Pizza", "lat": 44.569104, "lon": -91.5954316, "tags": {"addr:city": "Mondovi", "addr:housenumber": "S193", "addr:postcode": "54755", "addr:state": "WI", "addr:street": "County Road BB", "amenity": "restaurant", "cuisine": "pizza", "name": "Farm to Fork Pizza", "website": "https://www.dancingyarrow.com/"}}]